CCSDS_OMM_VERS = 2.0
CREATION_DATE  = 
ORIGINATOR     = 

OBJECT_NAME    = SL-3 R/B
OBJECT_ID      = 1982-079B
CENTER_NAME    = EARTH
REF_FRAME      = TEME
TIME_SYSTEM    = UTC
MEAN_ELEMENT_THEORY = SGP/SGP4

EPOCH          = 2026-02-12T03:15:50.727456
MEAN_MOTION    = 15.24415318
ECCENTRICITY   = .0024162
INCLINATION    = 81.1442
RA_OF_ASC_NODE = 223.2422
ARG_OF_PERICENTER = 252.4121
MEAN_ANOMALY   = 107.4472

EPHEMERIS_TYPE = 0
CLASSIFICATION_TYPE = U
NORAD_CAT_ID   = 13403
ELEMENT_SET_NO = 999
REV_AT_EPOCH   = 37380
BSTAR          = .24353E-3
MEAN_MOTION_DOT = .6045E-4
MEAN_MOTION_DDOT = 0

CCSDS_OMM_VERS = 2.0
CREATION_DATE  = 
ORIGINATOR     = 

OBJECT_NAME    = SL-14 R/B
OBJECT_ID      = 1982-092B
CENTER_NAME    = EARTH
REF_FRAME      = TEME
TIME_SYSTEM    = UTC
MEAN_ELEMENT_THEORY = SGP/SGP4

EPOCH          = 2026-02-11T21:01:43.577184
MEAN_MOTION    = 14.86638017
ECCENTRICITY   = .0021078
INCLINATION    = 82.5707
RA_OF_ASC_NODE = 165.5361
ARG_OF_PERICENTER = 30.7572
MEAN_ANOMALY   = 90.4616

EPHEMERIS_TYPE = 0
CLASSIFICATION_TYPE = U
NORAD_CAT_ID   = 13553
ELEMENT_SET_NO = 999
REV_AT_EPOCH   = 32509
BSTAR          = .6717E-4
MEAN_MOTION_DOT = .623E-5
MEAN_MOTION_DDOT = 0

CCSDS_OMM_VERS = 2.0
CREATION_DATE  = 
ORIGINATOR     = 

OBJECT_NAME    = SL-3 R/B
OBJECT_ID      = 1983-010B
CENTER_NAME    = EARTH
REF_FRAME      = TEME
TIME_SYSTEM    = UTC
MEAN_ELEMENT_THEORY = SGP/SGP4

EPOCH          = 2026-02-11T23:57:56.993184
MEAN_MOTION    = 15.45426905
ECCENTRICITY   = .0018218
INCLINATION    = 81.1027
RA_OF_ASC_NODE = 33.7221
ARG_OF_PERICENTER = 132.3465
MEAN_ANOMALY   = 227.9326

EPHEMERIS_TYPE = 0
CLASSIFICATION_TYPE = U
NORAD_CAT_ID   = 13819
ELEMENT_SET_NO = 999
REV_AT_EPOCH   = 35397
BSTAR          = .32743E-3
MEAN_MOTION_DOT = .158E-3
MEAN_MOTION_DDOT = 0

CCSDS_OMM_VERS = 2.0
CREATION_DATE  = 
ORIGINATOR     = 

OBJECT_NAME    = SL-3 R/B
OBJECT_ID      = 1983-075B
CENTER_NAME    = EARTH
REF_FRAME      = TEME
TIME_SYSTEM    = UTC
MEAN_ELEMENT_THEORY = SGP/SGP4

EPOCH          = 2026-02-12T02:51:33.308928
MEAN_MOTION    = 15.37757843
ECCENTRICITY   = .0020631
INCLINATION    = 97.6133
RA_OF_ASC_NODE = 46.7454
ARG_OF_PERICENTER = 326.1249
MEAN_ANOMALY   = 33.8676

EPHEMERIS_TYPE = 0
CLASSIFICATION_TYPE = U
NORAD_CAT_ID   = 14208
ELEMENT_SET_NO = 999
REV_AT_EPOCH   = 32622
BSTAR          = .34624E-3
MEAN_MOTION_DOT = .12852E-3
MEAN_MOTION_DDOT = 0

CCSDS_OMM_VERS = 2.0
CREATION_DATE  = 
ORIGINATOR     = 

OBJECT_NAME    = COSMOS 1536
OBJECT_ID      = 1984-013A
CENTER_NAME    = EARTH
REF_FRAME      = TEME
TIME_SYSTEM    = UTC
MEAN_ELEMENT_THEORY = SGP/SGP4

EPOCH          = 2026-02-11T17:06:34.181568
MEAN_MOTION    = 15.23476103
ECCENTRICITY   = .00145936
INCLINATION    = 82.5469
RA_OF_ASC_NODE = 133.6606
ARG_OF_PERICENTER = 19.7386
MEAN_ANOMALY   = 340.4413

EPHEMERIS_TYPE = 0
CLASSIFICATION_TYPE = U
NORAD_CAT_ID   = 14699
ELEMENT_SET_NO = 999
REV_AT_EPOCH   = 26866
BSTAR          = .25699957E-3
MEAN_MOTION_DOT = .6177E-4
MEAN_MOTION_DDOT = 0

CCSDS_OMM_VERS = 2.0
CREATION_DATE  = 
ORIGINATOR     = 

OBJECT_NAME    = SL-14 R/B
OBJECT_ID      = 1984-027B
CENTER_NAME    = EARTH
REF_FRAME      = TEME
TIME_SYSTEM    = UTC
MEAN_ELEMENT_THEORY = SGP/SGP4

EPOCH          = 2026-02-12T04:07:44.359680
MEAN_MOTION    = 14.85951140
ECCENTRICITY   = .0019332
INCLINATION    = 82.5394
RA_OF_ASC_NODE = 268.9510
ARG_OF_PERICENTER = 60.3437
MEAN_ANOMALY   = 299.9701

EPHEMERIS_TYPE = 0
CLASSIFICATION_TYPE = U
NORAD_CAT_ID   = 14820
ELEMENT_SET_NO = 999
REV_AT_EPOCH   = 24384
BSTAR          = .52482E-4
MEAN_MOTION_DOT = .484E-5
MEAN_MOTION_DDOT = 0

CCSDS_OMM_VERS = 2.0
CREATION_DATE  = 
ORIGINATOR     = 

OBJECT_NAME    = SL-8 R/B
OBJECT_ID      = 1985-006B
CENTER_NAME    = EARTH
REF_FRAME      = TEME
TIME_SYSTEM    = UTC
MEAN_ELEMENT_THEORY = SGP/SGP4

EPOCH          = 2026-02-12T03:22:58.946592
MEAN_MOTION    = 14.37770631
ECCENTRICITY   = .0019386
INCLINATION    = 74.0466
RA_OF_ASC_NODE = 308.1608
ARG_OF_PERICENTER = 231.0236
MEAN_ANOMALY   = 287.4723

EPHEMERIS_TYPE = 0
CLASSIFICATION_TYPE = U
NORAD_CAT_ID   = 15483
ELEMENT_SET_NO = 999
REV_AT_EPOCH   = 15035
BSTAR          = .86613E-4
MEAN_MOTION_DOT = .235E-5
MEAN_MOTION_DDOT = 0

CCSDS_OMM_VERS = 2.0
CREATION_DATE  = 
ORIGINATOR     = 

OBJECT_NAME    = SL-12 R/B(2)
OBJECT_ID      = 1985-042D
CENTER_NAME    = EARTH
REF_FRAME      = TEME
TIME_SYSTEM    = UTC
MEAN_ELEMENT_THEORY = SGP/SGP4

EPOCH          = 2026-02-11T17:56:01.505760
MEAN_MOTION    = 14.21975225
ECCENTRICITY   = .00347447
INCLINATION    = 71.1087
RA_OF_ASC_NODE = 142.5376
ARG_OF_PERICENTER = 169.8152
MEAN_ANOMALY   = 306.1122

EPHEMERIS_TYPE = 0
CLASSIFICATION_TYPE = U
NORAD_CAT_ID   = 15772
ELEMENT_SET_NO = 999
REV_AT_EPOCH   = 11070
BSTAR          = .84298862E-4
MEAN_MOTION_DOT = .14E-5
MEAN_MOTION_DDOT = 0

CCSDS_OMM_VERS = 2.0
CREATION_DATE  = 
ORIGINATOR     = 

OBJECT_NAME    = SL-14 R/B
OBJECT_ID      = 1985-069B
CENTER_NAME    = EARTH
REF_FRAME      = TEME
TIME_SYSTEM    = UTC
MEAN_ELEMENT_THEORY = SGP/SGP4

EPOCH          = 2026-02-12T00:43:03.856800
MEAN_MOTION    = 14.86402598
ECCENTRICITY   = .0017197
INCLINATION    = 82.5241
RA_OF_ASC_NODE = 49.0659
ARG_OF_PERICENTER = 278.3209
MEAN_ANOMALY   = 81.6057

EPHEMERIS_TYPE = 0
CLASSIFICATION_TYPE = U
NORAD_CAT_ID   = 15945
ELEMENT_SET_NO = 999
REV_AT_EPOCH   = 16902
BSTAR          = .65235E-4
MEAN_MOTION_DOT = .601E-5
MEAN_MOTION_DDOT = 0

CCSDS_OMM_VERS = 2.0
CREATION_DATE  = 
ORIGINATOR     = 

OBJECT_NAME    = SL-16 R/B
OBJECT_ID      = 1985-097B
CENTER_NAME    = EARTH
REF_FRAME      = TEME
TIME_SYSTEM    = UTC
MEAN_ELEMENT_THEORY = SGP/SGP4

EPOCH          = 2026-02-11T20:52:39.156096
MEAN_MOTION    = 14.16595725
ECCENTRICITY   = .0009704
INCLINATION    = 71.0020
RA_OF_ASC_NODE = 194.9075
ARG_OF_PERICENTER = 289.8410
MEAN_ANOMALY   = 182.4138

EPHEMERIS_TYPE = 0
CLASSIFICATION_TYPE = U
NORAD_CAT_ID   = 16182
ELEMENT_SET_NO = 999
REV_AT_EPOCH   = 8357
BSTAR          = -.75913E-4
MEAN_MOTION_DOT = -.199E-5
MEAN_MOTION_DDOT = 0

CCSDS_OMM_VERS = 2.0
CREATION_DATE  = 
ORIGINATOR     = 

OBJECT_NAME    = SL-14 R/B
OBJECT_ID      = 1986-006B
CENTER_NAME    = EARTH
REF_FRAME      = TEME
TIME_SYSTEM    = UTC
MEAN_ELEMENT_THEORY = SGP/SGP4

EPOCH          = 2026-02-12T03:33:34.140384
MEAN_MOTION    = 14.86780878
ECCENTRICITY   = .0076617
INCLINATION    = 82.5260
RA_OF_ASC_NODE = 283.7788
ARG_OF_PERICENTER = 358.5733
MEAN_ANOMALY   = 1.5252

EPHEMERIS_TYPE = 0
CLASSIFICATION_TYPE = U
NORAD_CAT_ID   = 16496
ELEMENT_SET_NO = 999
REV_AT_EPOCH   = 14541
BSTAR          = .78372E-4
MEAN_MOTION_DOT = .762E-5
MEAN_MOTION_DDOT = 0

CCSDS_OMM_VERS = 2.0
CREATION_DATE  = 
ORIGINATOR     = 

OBJECT_NAME    = COSMOS 1743
OBJECT_ID      = 1986-034A
CENTER_NAME    = EARTH
REF_FRAME      = TEME
TIME_SYSTEM    = UTC
MEAN_ELEMENT_THEORY = SGP/SGP4

EPOCH          = 2026-02-12T03:17:05.246592
MEAN_MOTION    = 15.56686343
ECCENTRICITY   = .0004785
INCLINATION    = 82.5329
RA_OF_ASC_NODE = 100.6098
ARG_OF_PERICENTER = 42.8629
MEAN_ANOMALY   = 317.2998

EPHEMERIS_TYPE = 0
CLASSIFICATION_TYPE = U
NORAD_CAT_ID   = 16719
ELEMENT_SET_NO = 999
REV_AT_EPOCH   = 17627
BSTAR          = .45288E-3
MEAN_MOTION_DOT = .32421E-3
MEAN_MOTION_DDOT = 0

